H1 CPF 01  gfz 2022 10 27 12  8002 terrasarx 
H2 0702601  6201 31698    2022 10 27 12 59 42 2022 11 01 00 00 42   120 1 1  0 0 0
H9
10 0 59879  79902.000000  0   -3197686.257   6099445.903    182224.693
10 0 59879  80022.000000  0   -3023109.021   6149529.981   -721708.263
10 0 59879  80142.000000  0   -2795821.063   6088678.409  -1612944.250
10 0 59879  80262.000000  0   -2521768.645   5917163.847  -2475825.579
10 0 59879  80382.000000  0   -2207690.857   5637313.207  -3295223.616
10 0 59879  80502.000000  0   -1860960.759   5253470.016  -4056806.101
10 0 59879  80622.000000  0   -1489417.170   4771916.324  -4747287.675
10 0 59879  80742.000000  0   -1101191.881   4200758.623  -5354656.163
10 0 59879  80862.000000  0    -704535.750   3549782.318  -5868374.363
10 0 59879  80982.000000  0    -307646.643   2830275.574  -6279554.245
10 0 59879  81102.000000  0      81496.448   2054826.897  -6581099.132
10 0 59879  81222.000000  0     455288.987   1237103.437  -6767814.614
10 0 59879  81342.000000  0     806645.017    391611.614  -6836489.616
10 0 59879  81462.000000  0    1129127.972   -466556.146  -6785945.430
10 0 59879  81582.000000  0    1417065.145  -1321985.530  -6617052.581
10 0 59879  81702.000000  0    1665644.746  -2159209.527  -6332716.484
10 0 59879  81822.000000  0    1870995.537  -2962980.849  -5937833.751
10 0 59879  81942.000000  0    2030247.241  -3718545.814  -5439218.353
10 0 59879  82062.000000  0    2141570.732  -4411916.378  -4845494.577
10 0 59879  82182.000000  0    2204196.759  -5030130.632  -4166957.445
10 0 59879  82302.000000  0    2218413.324  -5561500.035  -3415405.233
10 0 59879  82422.000000  0    2185541.096  -5995839.486  -2603942.878
10 0 59879  82542.000000  0    2107887.018  -6324673.911  -1746758.656
10 0 59879  82662.000000  0    1988675.475  -6541414.721   -858876.853
10 0 59879  82782.000000  0    1831961.982  -6641502.422     44108.794
10 0 59879  82902.000000  0    1642527.029  -6622507.474    946316.007
10 0 59879  83022.000000  0    1425755.326  -6484191.953   1831860.138
10 0 59879  83142.000000  0    1187502.155  -6228525.504   2685145.106
10 0 59879  83262.000000  0     933950.439  -5859654.879   3491145.912
10 0 59879  83382.000000  0     671462.353  -5383831.380   4235679.299
10 0 59879  83502.000000  0     406429.916  -4809297.093   4905656.598
10 0 59879  83622.000000  0     145127.125  -4146132.846   5489314.980
10 0 59879  83742.000000  0    -106431.327  -3406071.126   5976422.274
10 0 59879  83862.000000  0    -342622.022  -2602278.555   6358451.744
10 0 59879  83982.000000  0    -558333.619  -1749115.201   6628723.669
10 0 59879  84102.000000  0    -749073.439   -861875.595   6782516.060
10 0 59879  84222.000000  0    -911058.409     43486.983   6817143.422
10 0 59879  84342.000000  0   -1041289.072    950648.033   6732000.980
10 0 59879  84462.000000  0   -1137604.586   1843205.770   6528574.265
10 0 59879  84582.000000  0   -1198718.310   2704976.950   6210414.794
10 0 59879  84702.000000  0   -1224234.142   3520290.545   5783082.061
10 0 59879  84822.000000  0   -1214642.856   4274274.897   5254051.632
10 0 59879  84942.000000  0   -1171297.969   4953133.276   4632590.951
10 0 59879  85062.000000  0   -1096372.882   5544404.131   3929602.268
10 0 59879  85182.000000  0    -992798.325   6037197.619   3157434.430
10 0 59879  85302.000000  0    -864184.313   6422406.688   2329669.237
10 0 59879  85422.000000  0    -714724.652   6692886.908   1460878.926
10 0 59879  85542.000000  0    -549086.753   6843596.032    566364.186
10 0 59879  85662.000000  0    -372290.762   6871693.340   -338121.920
10 0 59879  85782.000000  0    -189580.578   6776596.047  -1236660.370
10 0 59879  85902.000000  0      -6290.275   6559987.982  -2113456.976
10 0 59879  86022.000000  0     172289.529   6225781.129  -2953126.895
10 0 59879  86142.000000  0     341042.754   5780035.353  -3740968.345
10 0 59879  86262.000000  0     495153.982   5230837.127  -4463221.430
10 0 59879  86382.000000  0     630226.246   4588140.270  -5107306.264
10 0 59880    102.000000  0     742387.688   3863573.788  -5662036.098
10 0 59880    222.000000  0     828384.402   3070221.710  -6117803.026
10 0 59880    342.000000  0     885657.662   2222379.677  -6466733.686
10 0 59880    462.000000  0     912404.977   1335294.646  -6702813.134
10 0 59880    582.000000  0     907623.245    424892.403  -6821978.596
10 0 59880    702.000000  0     871134.166   -492504.300  -6822182.120
10 0 59880    822.000000  0     803591.031  -1400462.746  -6703421.022
10 0 59880    942.000000  0     706467.113  -2282726.383  -6467736.300
10 0 59880   1062.000000  0     582026.482  -3123497.717  -6119182.890
10 0 59880   1182.000000  0     433276.096  -3907718.377  -5663769.051
10 0 59880   1302.000000  0     263900.870  -4621337.884  -5109361.653
10 0 59880   1422.000000  0      78182.935  -5251567.642  -4465561.908
10 0 59880   1542.000000  0    -119094.844  -5787117.104  -3743550.424
10 0 59880   1662.000000  0    -322758.723  -6218406.035  -2955901.802
10 0 59880   1782.000000  0    -527365.250  -6537747.649  -2116372.253
10 0 59880   1902.000000  0    -727331.283  -6739499.369  -1239662.103
10 0 59880   2022.000000  0    -917069.573  -6820174.767   -341156.268
10 0 59880   2142.000000  0   -1091126.635  -6778513.165    563350.753
10 0 59880   2262.000000  0   -1244319.687  -6615505.472   1457939.474
10 0 59880   2382.000000  0   -1371869.149  -6334375.069   2326854.586
10 0 59880   2502.000000  0   -1469522.660  -5940512.868   3154791.813
10 0 59880   2622.000000  0   -1533667.467  -5441368.649   3927175.563
10 0 59880   2742.000000  0   -1561427.557  -4846301.154   4630420.357
10 0 59880   2862.000000  0   -1550744.713  -4166393.677   5252170.807
10 0 59880   2982.000000  0   -1500441.749  -3414238.734   5781519.018
10 0 59880   3102.000000  0   -1410265.321  -2603694.328   6209192.740
10 0 59880   3222.000000  0   -1280907.340  -1749621.595   6527710.771
10 0 59880   3342.000000  0   -1114006.264   -867609.204   6731507.714
10 0 59880   3462.000000  0    -912128.790     26313.696   6817025.904
10 0 59880   3582.000000  0    -678731.211    915968.669   6782773.153
10 0 59880   3702.000000  0    -418100.026   1785320.258   6629347.795
10 0 59880   3822.000000  0    -135273.180   2618764.690   6359428.796
10 0 59880   3942.000000  0     164056.444   3401409.796   5977731.662
10 0 59880   4062.000000  0     473653.230   4119342.919   5490931.221
10 0 59880   4182.000000  0     786865.675   4759882.210   4907550.687
10 0 59880   4302.000000  0    1096766.213   5311807.242   4237818.286
10 0 59880   4422.000000  0    1396299.335   5765562.977   3493491.875
10 0 59880   4542.000000  0    1678437.416   6113435.313   2687658.287
10 0 59880   4662.000000  0    1936341.777   6349693.943   1834500.164
10 0 59880   4782.000000  0    2163519.527   6470693.662    949041.431
10 0 59880   4902.000000  0    2353977.260   6474933.801     46875.244
10 0 59880   5022.000000  0    2502364.910   6363074.402   -856118.123
10 0 59880   5142.000000  0    2604107.465   6137909.992  -1744058.821
10 0 59880   5262.000000  0    2655521.358   5804300.729  -2601354.133
10 0 59880   5382.000000  0    2653912.220   5369063.067  -3412978.679
10 0 59880   5502.000000  0    2597651.474   4840821.633  -4164741.764
10 0 59880   5622.000000  0    2486229.555   4229827.716  -4843534.727
10 0 59880   5742.000000  0    2320285.496   3547750.380  -5437554.606
10 0 59880   5862.000000  0    2101613.340   2807445.923  -5936501.397
10 0 59880   5982.000000  0    1833145.025   2022709.698  -6331746.929
10 0 59880   6102.000000  0    1518910.544   1208016.490  -6616471.916
10 0 59880   6222.000000  0    1163977.657    378255.156  -6785772.756
10 0 59880   6342.000000  0     774369.932   -451539.559  -6836737.893
10 0 59880   6462.000000  0     356965.053  -1266454.340  -6768491.508
10 0 59880   6582.000000  0     -80623.723  -2051957.930  -6582205.426
10 0 59880   6702.000000  0    -530182.148  -2794152.921  -6281082.418
10 0 59880   6822.000000  0    -983045.377  -3480018.542  -5870308.014
10 0 59880   6942.000000  0   -1430260.099  -4097637.284  -5356969.630
10 0 59880   7062.000000  0   -1862757.162  -4636403.907  -4749946.322
10 0 59880   7182.000000  0   -2271532.496  -5087213.884  -4059766.789
10 0 59880   7302.000000  0   -2647832.614  -5442625.573  -3298436.339
10 0 59880   7422.000000  0   -2983340.227  -5696992.629  -2479235.648
10 0 59880   7542.000000  0   -3270356.414  -5846564.166  -1616493.840
10 0 59880   7662.000000  0   -3501975.299  -5889549.503   -725338.283
10 0 59880   7782.000000  0   -3672245.671  -5826143.955    178574.841
10 0 59880   7902.000000  0   -3776314.992  -5658514.456   1079342.397
10 0 59880   8022.000000  0   -3810552.511  -5390745.318   1961102.939
10 0 59880   8142.000000  0   -3772647.545  -5028744.294   2808325.470
10 0 59880   8262.000000  0   -3661680.575  -4580112.423   3606090.747
10 0 59880   8382.000000  0   -3478165.691  -4053981.463   4340360.235
10 0 59880   8502.000000  0   -3224063.201  -3460822.079   4998226.856
10 0 59880   8622.000000  0   -2902762.647  -2812228.446   5568141.642
10 0 59880   8742.000000  0   -2519036.758  -2120685.778   6040113.527
10 0 59880   8862.000000  0   -2078968.033  -1399325.998   6405880.158
10 0 59880   8982.000000  0   -1589848.985   -661674.590   6659048.714
10 0 59880   9102.000000  0   -1060057.129     78606.292   6795200.042
10 0 59880   9222.000000  0    -498911.087    807969.492   6811959.239
10 0 59880   9342.000000  0      83492.984   1513229.955   6709035.387
10 0 59880   9462.000000  0     676462.799   2181802.922   6488226.527
10 0 59880   9582.000000  0    1268905.880   2801928.399   6153389.530
10 0 59880   9702.000000  0    1849536.022   3362878.293   5710376.997
10 0 59880   9822.000000  0    2407087.757   3855145.157   5166941.398
10 0 59880   9942.000000  0    2930536.530   4270608.514   4532605.608
99
